
# Worst residual: 4.89 km
# MJD 59523.000000 (2021 Nov  5  0:00)
1967-040F = NORAD 02770 = Transtage 10
1 02770U 67040F   21309.49919926  .00000000  00000-0  00000-0 0 12339
2 02770 028.2689 320.3503 8477243 200.3234 116.1316 00.50951669    08

# Worst residual: 9.85 km
# MJD 59524.000000 (2021 Nov  6  0:00)
1967-040F = NORAD 02770 = Transtage 10
1 02770U 67040F   21310.49919926  .00000000  00000-0  00000-0 0 12331
2 02770 028.2489 320.3100 8475099 200.3826 299.4718 00.50952021    07

# Worst residual: 4.76 km
# MJD 59525.000000 (2021 Nov  7  0:00)
1967-040F = NORAD 02770 = Transtage 10
1 02770U 67040F   21311.49919926  .00000000  00000-0  00000-0 0 12332
2 02770 028.2090 320.2426 8476611 200.4622 122.8702 00.50959241    04

# Worst residual: 7.26 km
# MJD 59526.000000 (2021 Nov  8  0:00)
1967-040F = NORAD 02770 = Transtage 10
1 02770U 67040F   21312.49919926  .00000000  00000-0  00000-0 0 12333
2 02770 028.1906 320.2032 8474234 200.5155 306.2621 00.50951925    02

# Worst residual: 6.94 km
# MJD 59527.000000 (2021 Nov  9  0:00)
1967-040F = NORAD 02770 = Transtage 10
1 02770U 67040F   21313.49919926  .00000000  00000-0  00000-0 0 12334
2 02770 028.1450 320.1399 8476798 200.5875 129.6369 00.50952551    09

# Worst residual: 7.14 km
# MJD 59528.000000 (2021 Nov 10  0:00)
1967-040F = NORAD 02770 = Transtage 10
1 02770U 67040F   21314.49919926  .00000000  00000-0  00000-0 0 12335
2 02770 028.1222 320.0958 8477252 200.6461 313.0565 00.50949512    04

# Worst residual: 7.10 km
# MJD 59529.000000 (2021 Nov 11  0:00)
1967-040F = NORAD 02770 = Transtage 10
1 02770U 67040F   21315.49919926  .00000000  00000-0  00000-0 0 12336
2 02770 028.0639 320.0306 8479126 200.7335 136.4043 00.50939495    02

# Worst residual: 8.11 km
# MJD 59530.000000 (2021 Nov 12  0:00)
1967-040F = NORAD 02770 = Transtage 10
1 02770U 67040F   21316.49919926  .00000000  00000-0  00000-0 0 12337
2 02770 028.0142 319.9568 8481270 200.8301 319.7661 00.50945502    03

# Worst residual: 5.20 km
# MJD 59531.000000 (2021 Nov 13  0:00)
1967-040F = NORAD 02770 = Transtage 10
1 02770U 67040F   21317.49919926  .00000000  00000-0  00000-0 0 12338
2 02770 027.9572 319.8898 8481210 200.9307 143.1306 00.50938841    07

# Worst residual: 7.90 km
# MJD 59532.000000 (2021 Nov 14  0:00)
1967-040F = NORAD 02770 = Transtage 10
1 02770U 67040F   21318.49919926  .00000000  00000-0  00000-0 0 12339
2 02770 027.8976 319.7999 8480787 201.0426 326.4456 00.50943433    02

# Worst residual: 3.42 km
# MJD 59533.000000 (2021 Nov 15  0:00)
1967-040F = NORAD 02770 = Transtage 10
1 02770U 67040F   21319.49919926  .00000000  00000-0  00000-0 0 12330
2 02770 027.8538 319.7334 8480420 201.1360 149.8508 00.50948951    06

# Worst residual: 7.46 km
# MJD 59534.000000 (2021 Nov 16  0:00)
1967-040F = NORAD 02770 = Transtage 10
1 02770U 67040F   21320.49919926  .00000000  00000-0  00000-0 0 12332
2 02770 027.8152 319.6630 8477769 201.2187 333.2010 00.50947602    05

# Worst residual: 4.66 km
# MJD 59535.000000 (2021 Nov 17  0:00)
1967-040F = NORAD 02770 = Transtage 10
1 02770U 67040F   21321.49919926  .00000000  00000-0  00000-0 0 12333
2 02770 027.7810 319.5992 8478759 201.2983 156.6178 00.50955756    00

# Worst residual: 7.22 km
# MJD 59536.000000 (2021 Nov 18  0:00)
1967-040F = NORAD 02770 = Transtage 10
1 02770U 67040F   21322.49919926  .00000000  00000-0  00000-0 0 12334
2 02770 027.7619 319.5522 8476451 201.3563 340.0082 00.50959039    09

# Worst residual: 3.83 km
# MJD 59537.000000 (2021 Nov 19  0:00)
1967-040F = NORAD 02770 = Transtage 10
1 02770U 67040F   21323.49919926  .00000000  00000-0  00000-0 0 12335
2 02770 027.7301 319.4910 8478865 201.4287 163.4120 00.50956987    01

# Worst residual: 7.05 km
# MJD 59538.000000 (2021 Nov 20  0:00)
1967-040F = NORAD 02770 = Transtage 10
1 02770U 67040F   21324.49919926  .00000000  00000-0  00000-0 0 12336
2 02770 027.7158 319.4498 8477286 201.4873 346.8080 00.50968395    07

# Worst residual: 3.39 km
# MJD 59539.000000 (2021 Nov 21  0:00)
1967-040F = NORAD 02770 = Transtage 10
1 02770U 67040F   21325.49919926  .00000000  00000-0  00000-0 0 12337
2 02770 027.6808 319.3898 8480113 201.5611 170.1920 00.50955017    03

# Worst residual: 7.24 km
# MJD 59540.000000 (2021 Nov 22  0:00)
1967-040F = NORAD 02770 = Transtage 10
1 02770U 67040F   21326.49919926  .00000000  00000-0  00000-0 0 12338
2 02770 027.6653 319.3475 8478696 201.6252 353.5813 00.50967766    09

# Worst residual: 1.90 km
# MJD 59541.000000 (2021 Nov 23  0:00)
1967-040F = NORAD 02770 = Transtage 10
1 02770U 67040F   21327.49919926  .00000000  00000-0  00000-0 0 12339
2 02770 027.6304 319.2879 8480839 201.7039 176.9547 00.50952665    08

# Worst residual: 7.30 km
# MJD 59542.000000 (2021 Nov 24  0:00)
1967-040F = NORAD 02770 = Transtage 10
1 02770U 67040F   21328.49919926  .00000000  00000-0  00000-0 0 12330
2 02770 027.6156 319.2447 8479290 201.7687 000.3425 00.50959790    03

# Worst residual: 3.39 km
# MJD 59543.000000 (2021 Nov 25  0:00)
1967-040F = NORAD 02770 = Transtage 10
1 02770U 67040F   21329.49919926  .00000000  00000-0  00000-0 0 12331
2 02770 027.5866 319.1892 8480455 201.8444 183.7230 00.50951002    08

# Worst residual: 10.21 km
# MJD 59544.000000 (2021 Nov 26  0:00)
1967-040F = NORAD 02770 = Transtage 10
1 02770U 67040F   21330.49919926  .00000000  00000-0  00000-0 0 12333
2 02770 027.5772 319.1512 8479145 201.9020 007.1164 00.50948085    00

# Worst residual: 3.62 km
# MJD 59545.000000 (2021 Nov 27  0:00)
1967-040F = NORAD 02770 = Transtage 10
1 02770U 67040F   21331.49919926  .00000000  00000-0  00000-0 0 12334
2 02770 027.5543 319.0996 8480074 201.9718 190.5082 00.50950234    03

# Worst residual: 9.16 km
# MJD 59546.000000 (2021 Nov 28  0:00)
1967-040F = NORAD 02770 = Transtage 10
1 02770U 67040F   21332.49919926  .00000000  00000-0  00000-0 0 12335
2 02770 027.5477 319.0651 8479315 202.0265 013.9037 00.50944193    07

# Worst residual: 3.28 km
# MJD 59547.000000 (2021 Nov 29  0:00)
1967-040F = NORAD 02770 = Transtage 10
1 02770U 67040F   21333.49919926  .00000000  00000-0  00000-0 0 12336
2 02770 027.5241 319.0145 8480636 202.0957 197.2921 00.50949087    05

# Worst residual: 7.86 km
# MJD 59548.000000 (2021 Nov 30  0:00)
1967-040F = NORAD 02770 = Transtage 10
1 02770U 67040F   21334.49919926  .00000000  00000-0  00000-0 0 12337
2 02770 027.5121 318.9725 8479995 202.1630 020.6697 00.50954739    08

# Worst residual: 3.83 km
# MJD 59549.000000 (2021 Dec  1  0:00)
1967-040F = NORAD 02770 = Transtage 10
1 02770U 67040F   21335.49919926  .00000000  00000-0  00000-0 0 12338
2 02770 027.4798 318.9179 8481544 202.2406 204.0429 00.50950004    07

# Worst residual: 7.62 km
# MJD 59550.000000 (2021 Dec  2  0:00)
1967-040F = NORAD 02770 = Transtage 10
1 02770U 67040F   21336.49919926  .00000000  00000-0  00000-0 0 12339
2 02770 027.4611 318.8655 8479432 202.3163 027.4032 00.50973382    04
